NORAD_CAT_ID,OBJECT_NAME,OBJECT_TYPE,EPOCH,MEAN_MOTION,ECCENTRICITY,INCLINATION,RA_OF_ASC_NODE,ARG_OF_PERICENTER,MEAN_ANOMALY,BSTAR,MEAN_MOTION_DOT,MEAN_MOTION_DDOT,TLE_LINE0,TLE_LINE1,TLE_LINE2,SEMIMAJOR_AXIS,PERIOD,APOGEE,PERIGEE,DECAYED
50834.0,STARLINK-3331,PAYLOAD,2023-09-28 07:43:38,15.08827141,0.0001637,53.2176,229.6051,104.9643,255.1531,-3.7931e-05,-8.91e-06,0.0,0 STARLINK-3331,1 50834U 22001AH  23271.32196785 -.00000891  00000-0 -37931-4 0  9998,2 50834  53.2176 229.6051 0001637 104.9643 255.1531 15.08827141 95390,6917.92,95.438,540.917,538.652,0.0
50834.0,STARLINK-3331,PAYLOAD,2023-09-29 05:59:01,15.08843966,0.0001325,53.2173,225.4434,111.0623,249.0511,0.00036008,5.448e-05,0.0,0 STARLINK-3331,1 50834U 22001AH  23272.24932571  .00005448  00000-0  36008-3 0  9995,2 50834  53.2173 225.4434 0001325 111.0623 249.0511 15.08843966 96818,6917.868,95.437,540.65,538.817,0.0
50834.0,STARLINK-3331,PAYLOAD,2023-09-29 12:20:33,15.08874081,0.0001288,53.2166,224.2523,85.6623,274.4516,0.00099282,0.00015563,0.0,0 STARLINK-3331,1 50834U 22001AH  23272.51427517  .00015563  00000-0  99282-3 0  9996,2 50834  53.2166 224.2523 0001288  85.6623 274.4516 15.08874081 96853,6917.776,95.435,540.532,538.75,0.0
50834.0,STARLINK-3331,PAYLOAD,2023-09-30 04:14:25,15.08860213,0.0001211,53.2163,221.2782,100.5423,259.5706,0.00049472,7.599e-05,0.0,0 STARLINK-3331,1 50834U 22001AH  23273.17667845  .00007599  00000-0  49472-3 0  9995,2 50834  53.2163 221.2782 0001211 100.5423 259.5706 15.08860213 96953,6917.819,95.436,540.521,538.846,0.0
50834.0,STARLINK-3331,PAYLOAD,2023-10-01 04:05:12,15.08845562,0.0001397,53.2161,216.817,93.3402,266.775,0.00037837,5.74e-05,0.0,0 STARLINK-3331,1 50834U 22001AH  23274.17028552  .00005740  00000-0  37837-3 0  9990,2 50834  53.2161 216.8170 0001397  93.3402 266.7750 15.08845562 97100,6917.863,95.437,540.695,538.762,0.0
50834.0,STARLINK-3331,PAYLOAD,2023-10-01 13:37:31,15.08839417,0.0001424,53.2157,215.0345,85.0143,275.1011,0.00055679,8.584e-05,0.0,0 STARLINK-3331,1 50834U 22001AH  23274.56772926  .00008584  00000-0  55679-3 0  9997,2 50834  53.2157 215.0345 0001424  85.0143 275.1011 15.08839417 97163,6917.882,95.438,540.732,538.762,0.0
50834.0,STARLINK-3331,PAYLOAD,2023-10-01 19:59:04,15.08843573,0.0001478,53.2164,213.845,88.4307,271.6854,0.00045567,6.972e-05,0.0,0 STARLINK-3331,1 50834U 22001AH  23274.83268889  .00006972  00000-0  45567-3 0  9999,2 50834  53.2164 213.8450 0001478  88.4307 271.6854 15.08843573 95928,6917.869,95.437,540.757,538.712,0.0
50834.0,STARLINK-3331,PAYLOAD,2023-10-02 07:06:45,15.08864932,0.0001365,53.2168,211.7625,99.2858,260.8288,0.0017522,0.00027727,0.0,0 STARLINK-3331,1 50834U 22001AH  23275.29636359  .00027727  00000-0  17522-2 0  9991,2 50834  53.2168 211.7625 0001365  99.2858 260.8288 15.08864932 97272,6917.804,95.436,540.613,538.725,0.0
50834.0,STARLINK-3331,PAYLOAD,2023-10-02 19:49:51,15.08839115,0.0001478,53.2161,209.3856,94.7889,265.3272,-1.8478e-05,-5.82e-06,0.0,0 STARLINK-3331,1 50834U 22001AH  23275.82628767 -.00000582  00000-0 -18478-4 0  9999,2 50834  53.2161 209.3856 0001478  94.7889 265.3272 15.08839115 97350,6917.883,95.438,540.771,538.726,0.0
50834.0,STARLINK-3331,PAYLOAD,2023-10-03 02:11:23,15.08849292,0.000155,53.2163,208.195,105.2674,254.849,0.00035114,5.306e-05,0.0,0 STARLINK-3331,1 50834U 22001AH  23276.09124598  .00005306  00000-0  35114-3 0  9994,2 50834  53.2163 208.1950 0001550 105.2674 254.8490 15.08849292 97391,6917.852,95.437,540.789,538.645,0.0
50834.0,STARLINK-3331,PAYLOAD,2023-10-03 22:51:24,15.08840719,0.0001499,53.2163,204.3287,114.1589,245.956,0.00075579,0.00011761,0.0,0 STARLINK-3331,1 50834U 22001AH  23276.95237210  .00011761  00000-0  75579-3 0  9996,2 50834  53.2163 204.3287 0001499 114.1589 245.9560 15.08840719 97527,6917.878,95.438,540.78,538.706,0.0
50834.0,STARLINK-3331,PAYLOAD,2023-10-04 05:12:57,15.08846785,0.0001748,53.2167,203.1372,115.4735,244.6438,0.00076197,0.00011862,0.0,0 STARLINK-3331,1 50834U 22001AH  23277.21733099  .00011862  00000-0  76197-3 0  9991,2 50834  53.2167 203.1372 0001748 115.4735 244.6438 15.08846785 96288,6917.86,95.437,540.934,538.515,0.0
50834.0,STARLINK-3331,PAYLOAD,2023-10-05 01:52:57,15.08860868,0.000133,53.2163,199.274,93.1408,266.9736,0.00098583,0.00015445,0.0,0 STARLINK-3331,1 50834U 22001AH  23278.07844713  .00015445  00000-0  98583-3 0  9996,2 50834  53.2163 199.2740 0001330  93.1408 266.9736 15.08860868 97696,6917.817,95.436,540.602,538.762,0.0
50834.0,STARLINK-3331,PAYLOAD,2023-10-05 11:25:16,15.08862203,0.0001462,53.2164,197.4895,85.0805,275.0354,0.00062443,9.67e-05,0.0,0 STARLINK-3331,1 50834U 22001AH  23278.47588389  .00009670  00000-0  62443-3 0  9993,2 50834  53.2164 197.4895 0001462  85.0805 275.0354 15.08862203 96472,6917.813,95.436,540.689,538.666,0.0
50834.0,STARLINK-3331,PAYLOAD,2023-10-05 22:32:58,15.08839501,0.0001429,53.2162,195.4087,77.8504,282.2649,3.8563e-05,3.26e-06,0.0,0 STARLINK-3331,1 50834U 22001AH  23278.93956791  .00000326  00000-0  38563-4 0  9996,2 50834  53.2162 195.4087 0001429  77.8504 282.2649 15.08839501 96549,6917.882,95.438,540.735,538.758,0.0
50834.0,STARLINK-3331,PAYLOAD,2023-10-06 03:19:07,15.08851727,0.0001396,53.2156,194.5177,81.4093,278.7057,0.00094921,0.00014856,0.0,0 STARLINK-3331,1 50834U 22001AH  23279.13828609  .00014856  00000-0  94921-3 0  9997,2 50834  53.2156 194.5177 0001396  81.4093 278.7057 15.08851727 97851,6917.845,95.437,540.675,538.744,0.0
50834.0,STARLINK-3331,PAYLOAD,2023-10-06 22:23:46,15.08837918,0.0001533,53.2159,190.9481,91.6355,268.4813,0.0011277,0.00017704,0.0,0 STARLINK-3331,1 50834U 22001AH  23279.93317466  .00017704  00000-0  11277-2 0  9996,2 50834  53.2159 190.9481 0001533  91.6355 268.4813 15.08837918 96692,6917.887,95.438,540.812,538.691,0.0
50834.0,STARLINK-3331,PAYLOAD,2023-10-07 01:34:32,15.08844225,0.0001846,53.2164,190.3526,77.0934,283.0264,0.00073047,0.00011358,0.0,0 STARLINK-3331,1 50834U 22001AH  23280.06565495  .00011358  00000-0  73047-3 0  9992,2 50834  53.2164 190.3526 0001846  77.0934 283.0264 15.08844225 97996,6917.867,95.437,541.01,538.455,0.0
50834.0,STARLINK-3331,PAYLOAD,2023-10-07 11:06:51,15.08846884,0.0001708,53.2156,188.5653,81.7603,278.3583,0.00074954,0.00011663,0.0,0 STARLINK-3331,1 50834U 22001AH  23280.46309386  .00011663  00000-0  74954-3 0  9998,2 50834  53.2156 188.5653 0001708  81.7603 278.3583 15.08846884 96778,6917.859,95.437,540.906,538.543,0.0
50834.0,STARLINK-3331,PAYLOAD,2023-10-07 22:14:33,15.08839799,0.0002198,53.2157,186.4854,87.2344,272.89,0.00044557,6.81e-05,0.0,0 STARLINK-3331,1 50834U 22001AH  23280.92677712  .00006810  00000-0  44557-3 0  9994,2 50834  53.2157 186.4854 0002198  87.2344 272.8900 15.08839799 96843,6917.881,95.438,541.267,538.225,0.0
50834.0,STARLINK-3331,PAYLOAD,2023-10-08 03:00:42,15.08850295,0.0001421,53.2151,185.5968,107.8863,252.2284,0.00044788,6.849e-05,0.0,0 STARLINK-3331,1 50834U 22001AH  23281.12548927  .00006849  00000-0  44788-3 0  9990,2 50834  53.2151 185.5968 0001421 107.8863 252.2284 15.08850295 98153,6917.849,95.437,540.697,538.731,0.0
50834.0,STARLINK-3331,PAYLOAD,2023-10-08 10:57:38,15.08834377,0.0001765,53.2157,184.1095,87.3975,272.7219,0.00018316,2.628e-05,0.0,0 STARLINK-3331,1 50834U 22001AH  23281.45669770  .00002628  00000-0  18316-3 0  9995,2 50834  53.2157 184.1095 0001765  87.3975 272.7219 15.08834377 96923,6917.898,95.438,540.984,538.542,0.0
50834.0,STARLINK-3331,PAYLOAD,2023-10-08 17:19:11,15.0883895,0.0001653,53.2173,182.9167,83.8407,276.2774,5.397e-05,5.71e-06,0.0,0 STARLINK-3331,1 50834U 22001AH  23281.72165736  .00000571  00000-0  53970-4 0  9999,2 50834  53.2173 182.9167 0001653  83.8407 276.2774 15.08838950 98247,6917.884,95.438,540.892,538.605,0.0
50834.0,STARLINK-3331,PAYLOAD,2023-10-08 20:29:57,15.08847063,0.0001798,53.2157,182.3222,83.3746,276.7451,0.00020752,3.017e-05,0.0,0 STARLINK-3331,1 50834U 22001AH  23281.85413407  .00003017  00000-0  20752-3 0  9993,2 50834  53.2157 182.3222 0001798  83.3746 276.7451 15.08847063 96987,6917.859,95.437,540.968,538.48,0.0
50834.0,STARLINK-3331,PAYLOAD,2023-10-08 23:40:43,15.08853339,0.0001211,53.215,181.731,96.2518,263.8612,0.00032688,4.92e-05,0.0,0 STARLINK-3331,1 50834U 22001AH  23281.98661026  .00004920  00000-0  32688-3 0  9994,2 50834  53.2150 181.7310 0001211  96.2518 263.8612 15.08853339 98285,6917.84,95.437,540.542,538.867,0.0
50834.0,STARLINK-3331,PAYLOAD,2023-10-09 10:48:25,15.08849014,0.0001381,53.2142,179.6498,93.1443,266.9707,0.00022916,3.362e-05,0.0,0 STARLINK-3331,1 50834U 22001AH  23282.45029092  .00003362  00000-0  22916-3 0  9990,2 50834  53.2142 179.6498 0001381  93.1443 266.9707 15.08849014 97070,6917.853,95.437,540.673,538.762,0.0
50834.0,STARLINK-3331,PAYLOAD,2023-10-09 17:09:58,15.08839978,0.0001874,53.217,178.4585,97.7104,262.4101,8.651e-05,1.089e-05,0.0,0 STARLINK-3331,1 50834U 22001AH  23282.71525605  .00001089  00000-0  86510-4 0  9995,2 50834  53.2170 178.4585 0001874  97.7104 262.4101 15.08839978 98399,6917.88,95.438,541.042,538.449,0.0
50834.0,STARLINK-3331,PAYLOAD,2023-10-09 21:56:07,15.088368,0.0001375,53.2153,177.5695,88.1249,271.9901,3.8594e-05,3.26e-06,0.0,0 STARLINK-3331,1 50834U 22001AH  23282.91397707  .00000326  00000-0  38594-4 0  9999,2 50834  53.2153 177.5695 0001375  88.1249 271.9901 15.08836800 97148,6917.89,95.438,540.706,538.804,0.0
50834.0,STARLINK-3331,PAYLOAD,2023-10-10 10:39:12,15.08843698,0.0001348,53.2166,175.1895,75.7599,284.3542,0.00016264,2.302e-05,0.0,0 STARLINK-3331,1 50834U 22001AH  23283.44389590  .00002302  00000-0  16264-3 0  9994,2 50834  53.2166 175.1895 0001348  75.7599 284.3542 15.08843698 97229,6917.869,95.437,540.667,538.802,0.0
50834.0,STARLINK-3331,PAYLOAD,2023-10-10 20:11:31,15.08836208,0.0001398,53.2156,173.4042,96.817,263.2981,3.1071e-05,2.07e-06,0.0,0 STARLINK-3331,1 50834U 22001AH  23283.84134001  .00000207  00000-0  31071-4 0  9999,2 50834  53.2156 173.4042 0001398  96.8170 263.2981 15.08836208 98567,6917.892,95.438,540.724,538.79,0.0
